start=new Date('2022-02-05T00:00:00.000Z').valueOf();
sats=[{"ARG_OF_PERICENTER":"79.3941","TIME_SYSTEM":"UTC","MEAN_ANOMALY":"280.7230","CLASSIFICATION_TYPE":"U","OBJECT_TYPE":"PAYLOAD","EPOCH":"2022-02-04T10:56:00.767616","EPHEMERIS_TYPE":"0","BSTAR":"0.00012086000000","ELEMENT_SET_NO":"999","RCS_SIZE":"LARGE","OBJECT_NAME":"STARLINK-1833","MEAN_MOTION_DDOT":"0.0000000000000","ECCENTRICITY":"0.00016160","TLE_LINE1":"1 46759U 20074W   22035.45556444  .00001519  00000-0  12086-3 0  9999","PERIAPSIS":"546.099","PERIOD":"95.592","LAUNCH_DATE":"2020-10-24","CENTER_NAME":"EARTH","INCLINATION":"53.0544","REF_FRAME":"TEME","OBJECT_ID":"2020-074W","COUNTRY_CODE":"US","DECAY_DATE":null,"MEAN_MOTION_DOT":"0.00001519","SEMIMAJOR_AXIS":"6925.353","NORAD_CAT_ID":"46759","GP_ID":"195299063","MEAN_ELEMENT_THEORY":"SGP4","SITE":"AFETR","APOAPSIS":"548.338","FILE":"3291889","MEAN_MOTION":"15.06398432","TLE_LINE2":"2 46759  53.0544 204.4886 0001616  79.3941 280.7230 15.06398432 71240","REV_AT_EPOCH":"7124","RA_OF_ASC_NODE":"204.4886"},{"ECCENTRICITY":"0.00016490","MEAN_MOTION_DDOT":"0.0000000000000","RCS_SIZE":"LARGE","OBJECT_NAME":"STARLINK-1896","ELEMENT_SET_NO":"999","BSTAR":"0.00033994000000","EPHEMERIS_TYPE":"0","CLASSIFICATION_TYPE":"U","OBJECT_TYPE":"PAYLOAD","EPOCH":"2022-02-04T19:09:38.144160","MEAN_ANOMALY":"283.5573","TIME_SYSTEM":"UTC","ARG_OF_PERICENTER":"76.5599","TLE_LINE2":"2 46760  53.0538 202.9485 0001649  76.5599 283.5573 15.06418117 71320","REV_AT_EPOCH":"7132","RA_OF_ASC_NODE":"202.9485","APOAPSIS":"548.300","FILE":"3291992","MEAN_MOTION":"15.06418117","SITE":"AFETR","MEAN_ELEMENT_THEORY":"SGP4","GP_ID":"195305646","MEAN_MOTION_DOT":"0.00004788","NORAD_CAT_ID":"46760","SEMIMAJOR_AXIS":"6925.293","DECAY_DATE":null,"COUNTRY_CODE":"US","REF_FRAME":"TEME","OBJECT_ID":"2020-074X","CENTER_NAME":"EARTH","INCLINATION":"53.0538","PERIOD":"95.591","LAUNCH_DATE":"2020-10-24","PERIAPSIS":"546.016","TLE_LINE1":"1 46760U 20074X   22035.79835815  .00004788  00000-0  33994-3 0  9992"},{"DECAY_DATE":null,"GP_ID":"195299563","MEAN_ELEMENT_THEORY":"SGP4","MEAN_MOTION_DOT":"0.00009910","SEMIMAJOR_AXIS":"6817.747","NORAD_CAT_ID":"46763","SITE":"AFETR","TLE_LINE2":"2 46763  53.0499 199.9345 0002182  59.4800 300.6420 15.42202616 71313","REV_AT_EPOCH":"7131","RA_OF_ASC_NODE":"199.9345","APOAPSIS":"441.100","MEAN_MOTION":"15.42202616","FILE":"3291889","TLE_LINE1":"1 46763U 20074AA  22035.44224979  .00009910  00000-0  23654-3 0  9994","PERIOD":"93.373","LAUNCH_DATE":"2020-10-24","PERIAPSIS":"438.124","CENTER_NAME":"EARTH","INCLINATION":"53.0499","COUNTRY_CODE":"US","REF_FRAME":"TEME","OBJECT_ID":"2020-074AA","BSTAR":"0.00023654000000","EPHEMERIS_TYPE":"0","ELEMENT_SET_NO":"999","RCS_SIZE":"LARGE","OBJECT_NAME":"STARLINK-1902","MEAN_MOTION_DDOT":"0.0000000000000","ECCENTRICITY":"0.00021820","ARG_OF_PERICENTER":"59.4800","TIME_SYSTEM":"UTC","MEAN_ANOMALY":"300.6420","EPOCH":"2022-02-04T10:36:50.381856","OBJECT_TYPE":"PAYLOAD","CLASSIFICATION_TYPE":"U"},{"OBJECT_TYPE":"PAYLOAD","CLASSIFICATION_TYPE":"U","EPOCH":"2022-02-04T11:01:18.926112","MEAN_ANOMALY":"285.9867","TIME_SYSTEM":"UTC","ARG_OF_PERICENTER":"74.1315","ECCENTRICITY":"0.00017590","MEAN_MOTION_DDOT":"0.0000000000000","RCS_SIZE":"LARGE","ELEMENT_SET_NO":"999","OBJECT_NAME":"STARLINK-1903","BSTAR":"0.00003870000000","EPHEMERIS_TYPE":"0","COUNTRY_CODE":"US","OBJECT_ID":"2020-074AB","REF_FRAME":"TEME","INCLINATION":"53.0548","CENTER_NAME":"EARTH","LAUNCH_DATE":"2020-10-24","PERIOD":"95.592","PERIAPSIS":"545.995","TLE_LINE1":"1 46764U 20074AB  22035.45924683  .00000295  00000-0  38700-4 0  9991","RA_OF_ASC_NODE":"204.4672","TLE_LINE2":"2 46764  53.0548 204.4672 0001759  74.1315 285.9867 15.06400154 71258","REV_AT_EPOCH":"7125","FILE":"3291889","MEAN_MOTION":"15.06400154","APOAPSIS":"548.431","SITE":"AFETR","MEAN_ELEMENT_THEORY":"SGP4","GP_ID":"195299808","SEMIMAJOR_AXIS":"6925.348","NORAD_CAT_ID":"46764","MEAN_MOTION_DOT":"0.00000295","DECAY_DATE":null},{"BSTAR":"0.00002897700000","EPHEMERIS_TYPE":"0","RCS_SIZE":"LARGE","ELEMENT_SET_NO":"999","OBJECT_NAME":"STARLINK-1906","MEAN_MOTION_DDOT":"0.0000000000000","ECCENTRICITY":"0.00016520","ARG_OF_PERICENTER":"78.5142","TIME_SYSTEM":"UTC","MEAN_ANOMALY":"281.6032","CLASSIFICATION_TYPE":"U","OBJECT_TYPE":"PAYLOAD","EPOCH":"2022-02-04T18:43:05.470752","DECAY_DATE":null,"GP_ID":"195305969","MEAN_ELEMENT_THEORY":"SGP4","NORAD_CAT_ID":"46765","SEMIMAJOR_AXIS":"6925.370","MEAN_MOTION_DOT":"0.00000150","SITE":"AFETR","RA_OF_ASC_NODE":"203.0512","REV_AT_EPOCH":"7102","TLE_LINE2":"2 46765  53.0541 203.0512 0001652  78.5142 281.6032 15.06392936 71028","MEAN_MOTION":"15.06392936","FILE":"3292015","APOAPSIS":"548.379","TLE_LINE1":"1 46765U 20074AC  22035.77992443  .00000150  00000-0  28977-4 0  9991","LAUNCH_DATE":"2020-10-24","PERIOD":"95.593","PERIAPSIS":"546.091","INCLINATION":"53.0541","CENTER_NAME":"EARTH","COUNTRY_CODE":"US","OBJECT_ID":"2020-074AC","REF_FRAME":"TEME"},{"BSTAR":"0.00005571500000","EPHEMERIS_TYPE":"0","RCS_SIZE":"LARGE","ELEMENT_SET_NO":"999","OBJECT_NAME":"STARLINK-1916","MEAN_MOTION_DDOT":"0.0000000000000","ECCENTRICITY":"0.00017660","TIME_SYSTEM":"UTC","ARG_OF_PERICENTER":"75.5509","MEAN_ANOMALY":"284.5676","CLASSIFICATION_TYPE":"U","OBJECT_TYPE":"PAYLOAD","EPOCH":"2022-02-04T18:32:27.931200","DECAY_DATE":null,"MEAN_ELEMENT_THEORY":"SGP4","GP_ID":"195306573","SEMIMAJOR_AXIS":"6925.303","NORAD_CAT_ID":"46766","MEAN_MOTION_DOT":"0.00000549","SITE":"AFETR","RA_OF_ASC_NODE":"203.0684","TLE_LINE2":"2 46766  53.0527 203.0684 0001766  75.5509 284.5676 15.06414784 71036","REV_AT_EPOCH":"7103","MEAN_MOTION":"15.06414784","FILE":"3292021","APOAPSIS":"548.391","TLE_LINE1":"1 46766U 20074AD  22035.77254550  .00000549  00000-0  55715-4 0  9994","LAUNCH_DATE":"2020-10-24","PERIOD":"95.591","PERIAPSIS":"545.945","INCLINATION":"53.0527","CENTER_NAME":"EARTH","COUNTRY_CODE":"US","OBJECT_ID":"2020-074AD","REF_FRAME":"TEME"},{"LAUNCH_DATE":"2020-10-24","PERIOD":"95.592","PERIAPSIS":"546.108","TLE_LINE1":"1 46767U 20074AE  22035.80203743  .00002191  00000-0  16594-3 0  9993","COUNTRY_CODE":"US","OBJECT_ID":"2020-074AE","REF_FRAME":"TEME","INCLINATION":"53.0542","CENTER_NAME":"EARTH","MEAN_ELEMENT_THEORY":"SGP4","GP_ID":"195306087","NORAD_CAT_ID":"46767","SEMIMAJOR_AXIS":"6925.337","MEAN_MOTION_DOT":"0.00002191","DECAY_DATE":null,"RA_OF_ASC_NODE":"202.9282","TLE_LINE2":"2 46767  53.0542 202.9282 0001581  73.5210 286.5953 15.06403612 71317","REV_AT_EPOCH":"7131","MEAN_MOTION":"15.06403612","FILE":"3292022","APOAPSIS":"548.297","SITE":"AFETR","TIME_SYSTEM":"UTC","ARG_OF_PERICENTER":"73.5210","EPOCH":"2022-02-04T19:14:56.033952","OBJECT_TYPE":"PAYLOAD","CLASSIFICATION_TYPE":"U","MEAN_ANOMALY":"286.5953","ELEMENT_SET_NO":"999","RCS_SIZE":"LARGE","OBJECT_NAME":"STARLINK-1917","BSTAR":"0.00016594000000","EPHEMERIS_TYPE":"0","ECCENTRICITY":"0.00015810","MEAN_MOTION_DDOT":"0.0000000000000"},{"MEAN_ANOMALY":"278.1509","OBJECT_TYPE":"PAYLOAD","CLASSIFICATION_TYPE":"U","EPOCH":"2022-02-03T22:38:13.855488","TIME_SYSTEM":"UTC","ARG_OF_PERICENTER":"81.9728","MEAN_MOTION_DDOT":"0.0000000000000","ECCENTRICITY":"0.00021830","EPHEMERIS_TYPE":"0","BSTAR":"0.00011530000000","RCS_SIZE":"LARGE","OBJECT_NAME":"STARLINK-1918","ELEMENT_SET_NO":"999","CENTER_NAME":"EARTH","INCLINATION":"53.0549","REF_FRAME":"TEME","OBJECT_ID":"2020-074AF","COUNTRY_CODE":"US","TLE_LINE1":"1 46768U 20074AF  22034.94321592  .00001436  00000-0  11530-3 0  9997","PERIAPSIS":"545.684","PERIOD":"95.592","LAUNCH_DATE":"2020-10-24","SITE":"AFETR","APOAPSIS":"548.708","FILE":"3291889","MEAN_MOTION":"15.06405821","TLE_LINE2":"2 46768  53.0549 206.8024 0002183  81.9728 278.1509 15.06405821 71170","REV_AT_EPOCH":"7117","RA_OF_ASC_NODE":"206.8024","DECAY_DATE":null,"MEAN_MOTION_DOT":"0.00001436","SEMIMAJOR_AXIS":"6925.331","NORAD_CAT_ID":"46768","MEAN_ELEMENT_THEORY":"SGP4","GP_ID":"195300308"},{"EPHEMERIS_TYPE":"0","BSTAR":"0.00492650000000","RCS_SIZE":"LARGE","ELEMENT_SET_NO":"999","OBJECT_NAME":"STARLINK-1919","MEAN_MOTION_DDOT":"0.0000000000000","ECCENTRICITY":"0.00024020","ARG_OF_PERICENTER":"349.1441","TIME_SYSTEM":"UTC","MEAN_ANOMALY":"10.9521","EPOCH":"2022-02-04T16:54:27.669888","OBJECT_TYPE":"PAYLOAD","CLASSIFICATION_TYPE":"U","DECAY_DATE":null,"MEAN_MOTION_DOT":"0.00525299","NORAD_CAT_ID":"46769","SEMIMAJOR_AXIS":"6751.381","GP_ID":"195306658","MEAN_ELEMENT_THEORY":"SGP4","SITE":"AFETR","APOAPSIS":"374.868","MEAN_MOTION":"15.64998056","FILE":"3292028","TLE_LINE2":"2 46769  53.0546 180.9355 0002402 349.1441  10.9521 15.64998056 71337","REV_AT_EPOCH":"7133","RA_OF_ASC_NODE":"180.9355","TLE_LINE1":"1 46769U 20074AG  22035.70448692  .00525299  00000-0  49265-2 0  9997","PERIAPSIS":"371.625","PERIOD":"92.013","LAUNCH_DATE":"2020-10-24","CENTER_NAME":"EARTH","INCLINATION":"53.0546","REF_FRAME":"TEME","OBJECT_ID":"2020-074AG","COUNTRY_CODE":"US"},{"OBJECT_ID":"2020-074AH","REF_FRAME":"TEME","COUNTRY_CODE":"US","INCLINATION":"53.0539","CENTER_NAME":"EARTH","PERIAPSIS":"546.138","LAUNCH_DATE":"2020-10-24","PERIOD":"95.592","TLE_LINE1":"1 46770U 20074AH  22035.76055117  .00000925  00000-0  80997-4 0  9994","MEAN_MOTION":"15.06396887","FILE":"3292034","APOAPSIS":"548.308","RA_OF_ASC_NODE":"203.1255","TLE_LINE2":"2 46770  53.0539 203.1255 0001567  73.6624 286.4537 15.06396887 71316","REV_AT_EPOCH":"7131","SITE":"AFETR","SEMIMAJOR_AXIS":"6925.358","NORAD_CAT_ID":"46770","MEAN_MOTION_DOT":"0.00000925","MEAN_ELEMENT_THEORY":"SGP4","GP_ID":"195306741","DECAY_DATE":null,"OBJECT_TYPE":"PAYLOAD","CLASSIFICATION_TYPE":"U","EPOCH":"2022-02-04T18:15:11.621088","MEAN_ANOMALY":"286.4537","ARG_OF_PERICENTER":"73.6624","TIME_SYSTEM":"UTC","ECCENTRICITY":"0.00015670","MEAN_MOTION_DDOT":"0.0000000000000","OBJECT_NAME":"STARLINK-1932","RCS_SIZE":"LARGE","ELEMENT_SET_NO":"999","EPHEMERIS_TYPE":"0","BSTAR":"0.00008099700000"}];
